BEIDOU-2 IGSO-1 (C06)   
1 36828U 10036A   25191.36868751 -.00000089  00000+0  00000+0 0  9995
2 36828  54.2804 166.0533 0049406 217.9992 144.8789  1.00270379 54670
BEIDOU-2 G4 (C04)       
1 37210U 10057A   25192.16447634 -.00000103  00000+0  00000+0 0  9993
2 37210   2.7972  70.4360 0004933 169.5572 268.5143  1.00270818 53864
BEIDOU-2 IGSO-2 (C07)   
1 37256U 10068A   25191.65030159 -.00000176  00000+0  00000+0 0  9998
2 37256  48.1630 276.0644 0047824 214.2121 140.2954  1.00282573 53364
BEIDOU-2 IGSO-3 (C08)   
1 37384U 11013A   25191.52173757 -.00000155  00000+0  00000+0 0  9996
2 37384  61.9171  43.3851 0031614 175.8710   4.0623  1.00260956 52236
BEIDOU-2 IGSO-4 (C09)   
1 37763U 11038A   25190.39489278  .00000022  00000+0  00000+0 0  9998
2 37763  54.5825 168.7436 0144503 231.2281 124.9514  1.00273447 51200
BEIDOU-2 IGSO-5 (C10)   
1 37948U 11073A   25191.64150948 -.00000137  00000+0  00000+0 0  9998
2 37948  48.2999 275.7691 0109248 220.4463 119.2728  1.00283164 49970
BEIDOU-2 G5 (C05)       
1 38091U 12008A   25192.14445626  .00000067  00000+0  00000+0 0  9994
2 38091   2.7205  71.2352 0006257 264.1340  64.7286  1.00267257 49050
BEIDOU-2 M3 (C11)       
1 38250U 12018A   25188.99969458 -.00000088  00000+0  00000+0 0  9998
2 38250  56.0500 316.4553 0021492 266.5041  93.2483  1.86233757 89531
BEIDOU-2 M4 (C12)       
1 38251U 12018B   25187.85808460 -.00000095  00000+0  00000+0 0  9996
2 38251  55.9539 315.7354 0012406 266.4339  93.4216  1.86232152 89519
BEIDOU-2 M6 (C14)       
1 38775U 12050B   25191.86423038 -.00000027  00000+0  00000+0 0  9998
2 38775  56.2396  74.2063 0013156 352.7142   7.3349  1.86231125 87308
BEIDOU-2 G6 (C02)       
1 38953U 12059A   25191.75867030 -.00000165  00000+0  00000+0 0  9990
2 38953   3.5509  77.1162 0008648 324.1281 244.7223  1.00268160 46483
BEIDOU-3S IGSO-1S (C31) 
1 40549U 15019A   25191.76485214 -.00000172  00000+0  00000+0 0  9992
2 40549  49.8427 299.5745 0040557 193.3544 166.3958  1.00273027 37649
BEIDOU-3S M2S (C58)     
1 40748U 15037A   25190.74638731 -.00000074  00000+0  00000+0 0  9995
2 40748  55.1722 313.8151 0009705 250.2584 109.6427  1.86229315 67746
BEIDOU-3S M1S (C57)     
1 40749U 15037B   25189.92343425 -.00000080  00000+0  00000+0 0  9994
2 40749  55.1696 313.8346 0002756  22.4429 337.5721  1.86253965 67735
BEIDOU-3S IGSO-2S (C56) 
1 40938U 15053A   25191.64350787 -.00000086  00000+0  00000+0 0  9999
2 40938  49.7489 262.8428 0060158 189.9590 162.6642  1.00262190 35927
BEIDOU-2 IGSO-6 (C13)   
1 41434U 16021A   25191.58604987 -.00000135  00000+0  00000+0 0  9999
2 41434  59.7431  41.4451 0054166 227.9774 325.7697  1.00283405 34049
BEIDOU-2 G7 (C03)       
1 41586U 16037A   25192.05877875 -.00000343  00000+0  00000+0 0  9996
2 41586   1.8204  69.1876 0009742  12.7360 338.9636  1.00268367 33365
BEIDOU-3 M1 (C19)       
1 43001U 17069A   25189.48201748 -.00000049  00000+0  00000+0 0  9992
2 43001  56.3863  74.4323 0009561 319.8629  40.1217  1.86231552 52200
BEIDOU-3 M2 (C20)       
1 43002U 17069B   25191.03094374 -.00000033  00000+0  00000+0 0  9995
2 43002  56.3870  74.4166 0008292 348.4992  11.5457  1.86230949 52224
BEIDOU-3 M7 (C27)       
1 43107U 18003A   25190.77602868 -.00000075  00000+0  00000+0 0  9999
2 43107  54.6304 314.2343 0004155  91.9405 268.1127  1.86232630 50971
BEIDOU-3 M8 (C28)       
1 43108U 18003B   25191.79356071 -.00000069  00000+0  00000+0 0  9998
2 43108  54.6225 314.1827 0003251 251.4420 108.5321  1.86231068 51008
BEIDOU-3 M4 (C22)       
1 43207U 18018A   25187.93934861 -.00000064  00000+0  00000+0 0  9999
2 43207  56.3438  74.5592 0007026  17.1702 342.9009  1.86231467 50316
BEIDOU-3 M3 (C21)       
1 43208U 18018B   25190.69069834 -.00000036  00000+0  00000+0 0  9995
2 43208  56.3455  74.4723 0007721 336.6666  23.3602  1.86231307 50368
BEIDOU-3 M9 (C29)       
1 43245U 18029A   25191.44496652 -.00000068  00000+0  00000+0 0  9999
2 43245  54.5021 311.8808 0001046 192.0566 167.9520  1.86232874 49538
BEIDOU-3 M10 (C30)      
1 43246U 18029B   25190.30418081 -.00000076  00000+0  00000+0 0  9993
2 43246  54.5006 311.9472 0003134  27.3590 332.6641  1.86229288 49492
BEIDOU-2 IGSO-7 (C16)   
1 43539U 18057A   25191.33933868 -.00000089  00000+0  00000+0 0  9992
2 43539  55.1703 166.0167 0089744 236.5034 118.1566  1.00249952 25691
BEIDOU-3 M5 (C23)       
1 43581U 18062A   25190.52921508  .00000094  00000+0  00000+0 0  9998
2 43581  54.1007 193.9534 0005667 283.3067  76.6565  1.86228832 47250
BEIDOU-3 M6 (C24)       
1 43582U 18062B   25190.93012304  .00000092  00000+0  00000+0 0  9997
2 43582  54.1005 193.9289 0004699   1.8255 358.2003  1.86229718 47263
BEIDOU-3 M12 (C26)      
1 43602U 18067A   25191.94009610  .00000086  00000+0  00000+0 0  9996
2 43602  54.1937 192.6114 0007301  23.8163 336.2323  1.86227777 46766
BEIDOU-3 M11 (C25)      
1 43603U 18067B   25192.07420691  .00000086  00000+0  00000+0 0  9998
2 43603  54.1910 192.5712 0004172   6.1735 353.8456  1.86227278 46794
BEIDOU-3 M13 (C32)      
1 43622U 18072A   25190.95869299 -.00000034  00000+0  00000+0 0  9995
2 43622  56.3193  73.9789 0006209 324.5951  35.4275  1.86231464 46286
BEIDOU-3 M14 (C33)      
1 43623U 18072B   25191.89808375 -.00000026  00000+0  00000+0 0  9999
2 43623  56.3220  73.9415 0005259   0.5222 359.5470  1.86231460 46294
BEIDOU-3 M16 (C35)      
1 43647U 18078A   25190.44676651 -.00000075  00000+0  00000+0 0  9995
2 43647  54.3994 311.9812 0006521  31.6883 328.3579  1.86232357 45775
BEIDOU-3 M15 (C34)      
1 43648U 18078B   25192.18684373 -.00000065  00000+0  00000+0 0  9998
2 43648  54.3936 311.9222 0003442  49.3542 310.6897  1.86232420 45839
BEIDOU-3 G1 (C59)       
1 43683U 18085A   25191.80363300 -.00000267  00000+0  00000+0 0  9991
2 43683   2.7243 107.6243 0004600 350.2933 260.3539  1.00275924 24635
BEIDOU-3 M17 (C36)      
1 43706U 18093A   25190.73181403  .00000093  00000+0  00000+0 0  9995
2 43706  54.1841 193.9134 0010300 286.4711  73.4409  1.86228475 45164
BEIDOU-3 M18 (C37)      
1 43707U 18093B   25191.13098482  .00000091  00000+0  00000+0 0  9993
2 43707  54.1848 193.8917 0008185 312.4522  47.5014  1.86230010 45160
BEIDOU-3 IGSO-1 (C38)   
1 44204U 19023A   25191.52232160 -.00000194  00000+0  00000+0 0  9991
2 44204  58.2094  41.1769 0023659 216.0045 337.4222  1.00290830  3789
BEIDOU-2 G8 (C01)       
1 44231U 19027A   25192.16144300 -.00000237  00000+0  00000+0 0  9992
2 44231   1.7492  75.2099 0003686 258.3417 158.3932  1.00274545 22658
BEIDOU-3 IGSO-2 (C39)   
1 44337U 19035A   25190.85068039 -.00000102  00000+0  00000+0 0  9997
2 44337  55.2157 161.8700 0035646 210.6330 341.2267  1.00264020 22239
BEIDOU-3 M24 (C46)      
1 44542U 19061A   25191.20208706  .00000091  00000+0  00000+0 0  9997
2 44542  54.4116 194.2607 0008185 350.0905   9.9167  1.86229285 39428
BEIDOU-3 M23 (C45)      
1 44543U 19061B   25192.14072957  .00000087  00000+0  00000+0 0  9994
2 44543  54.4106 194.1977 0005706 329.7332 212.3456  1.86229451 39437
BEIDOU-3 IGSO-3 (C40)   
1 44709U 19073A   25190.66437679 -.00000181  00000+0  00000+0 0  9998
2 44709  55.3860 284.5982 0045110 189.0460 170.9408  1.00292043 21003
BEIDOU-3 M22 (C44)      
1 44793U 19078A   25189.97016279 -.00000078  00000+0  00000+0 0  9992
2 44793  54.2465 311.8824 0005519  41.3314 318.7161  1.86232328 38258
BEIDOU-3 M21 (C43)      
1 44794U 19078B   25191.71507159 -.00000067  00000+0  00000+0 0  9998
2 44794  54.2184 311.7895 0003397  39.0331 321.0037  1.86227836 38290
BEIDOU-3 M19 (C41)      
1 44864U 19090A   25191.14590472 -.00000032  00000+0  00000+0 0  9999
2 44864  56.2532  74.1230 0016928 291.5675 241.1231  1.86231809 37865
BEIDOU-3 M20 (C42)      
1 44865U 19090B   25190.49489233 -.00000039  00000+0  00000+0 0  9996
2 44865  56.2543  74.1786 0014827 306.0864 239.7727  1.86231722 37836
BEIDOU-3 G2 (C60)       
1 45344U 20017A   25192.14861627 -.00000131  00000+0  00000+0 0  9998
2 45344   2.9125  40.9510 0001961  60.7005 321.1652  1.00270798 19852
BEIDOU-3 G3 (C61)       
1 45807U 20040A   25191.77236751 -.00000343  00000+0  00000+0 0  9995
2 45807   1.6149  64.5874 0004745 349.5898 263.3636  1.00271627 18641
BEIDOU-3 G4 (C62)       
1 56564U 23066A   25191.74185287 -.00000098  00000+0  00000+0 0  9999
2 56564   1.1692 293.2949 0006946 190.3584 232.3175  1.00270792  7974
BEIDOU-3 M28 (C50)      
1 58654U 23207A   25191.25765954 -.00000033  00000+0  00000+0 0  9998
2 58654  55.4427  73.8656 0002351 345.6101  14.4475  1.86230010 10471
BEIDOU-3 M26 (C48)      
1 58655U 23207B   25191.05665019 -.00000035  00000+0  00000+0 0  9990
2 58655  55.4446  73.8585 0002174 305.4567  54.5863  1.86231738 10459
BEIDOU-3 M25 (C47)      
1 61186U 24168B   25191.51229537 -.00000070  00000+0  00000+0 0  9991
2 61186  54.7754 314.0961 0003570 284.7920 138.3232  1.86230225  5429
BEIDOU-3 M27 (C49)      
1 61187U 24168C   25190.67652473 -.00000076  00000+0  00000+0 0  9993
2 61187  54.7717 314.1090 0000976  30.5887 327.0794  1.86230324  2875
